[{"OBJECT_NAME":"STARLINK-5883","OBJECT_ID":"2023-037AU","EPOCH":"2026-03-09T22:35:03.083424","MEAN_MOTION":14.98329575,"ECCENTRICITY":0.00019122,"INCLINATION":69.9983,"RA_OF_ASC_NODE":263.7076,"ARG_OF_PERICENTER":275.3776,"MEAN_ANOMALY":84.7165,"EPHEMERIS_TYPE":0,"CLASSIFICATION_TYPE":"U","NORAD_CAT_ID":55956,"ELEMENT_SET_NO":999,"REV_AT_EPOCH":16451,"BSTAR":4.036548e-6,"MEAN_MOTION_DOT":-4.5e-7,"MEAN_MOTION_DDOT":0},{"OBJECT_NAME":"DELTA 1 R\/B","OBJECT_ID":"1969-009B","EPOCH":"2026-03-09T16:11:16.692864","MEAN_MOTION":11.46656953,"ECCENTRICITY":0.16317148,"INCLINATION":88.4192,"RA_OF_ASC_NODE":116.7958,"ARG_OF_PERICENTER":132.3404,"MEAN_ANOMALY":242.797,"EPHEMERIS_TYPE":0,"CLASSIFICATION_TYPE":"U","NORAD_CAT_ID":3670,"ELEMENT_SET_NO":999,"REV_AT_EPOCH":36779,"BSTAR":0.00035857765,"MEAN_MOTION_DOT":5.51e-6,"MEAN_MOTION_DDOT":0}]
